[{"OBJECT_NAME":"STARLINK-6291","OBJECT_ID":"2023-065AW","EPOCH":"2026-03-09T22:00:01.999584","MEAN_MOTION":15.11949654,"ECCENTRICITY":0.00013244,"INCLINATION":42.9999,"RA_OF_ASC_NODE":221.1918,"ARG_OF_PERICENTER":282.985,"MEAN_ANOMALY":298.7802,"EPHEMERIS_TYPE":0,"CLASSIFICATION_TYPE":"U","NORAD_CAT_ID":56547,"ELEMENT_SET_NO":999,"REV_AT_EPOCH":557,"BSTAR":0.0048629673,"MEAN_MOTION_DOT":0.00085653,"MEAN_MOTION_DDOT":0},{"OBJECT_NAME":"COSMOS 2535 DEB","OBJECT_ID":"2019-039H","EPOCH":"2026-03-09T01:37:49.505376","MEAN_MOTION":15.12536261,"ECCENTRICITY":0.00199509,"INCLINATION":97.5365,"RA_OF_ASC_NODE":108.6978,"ARG_OF_PERICENTER":50.248,"MEAN_ANOMALY":310.0505,"EPHEMERIS_TYPE":0,"CLASSIFICATION_TYPE":"U","NORAD_CAT_ID":44631,"ELEMENT_SET_NO":999,"REV_AT_EPOCH":34980,"BSTAR":0.00071319108,"MEAN_MOTION_DOT":0.00012434,"MEAN_MOTION_DDOT":0}]
